{
  "type": "FeatureCollection",
  "features": [
    {
      "type": "Feature",
      "properties": {
        "norad_id": 37238,
        "name": "INTELSAT 17 (IS-17)",
        "group": "intelsat",
        "lat": 0.014798727200356838,
        "lon": 94.13445779520539,
        "alt_km": 35795.92004300483,
        "timestamp": "2025-12-09T20:37:08.949598+00:00",
        "meta_object_name": "INTELSAT 17 (IS-17)",
        "meta_object_id": "2010-065B",
        "meta_epoch": "2025-12-09T13:53:13.377120",
        "meta_mean_motion": 1.00272555,
        "meta_eccentricity": 0.00024477,
        "meta_inclination": 0.0146,
        "meta_ra_of_asc_node": 285.3416,
        "meta_arg_of_pericenter": 335.0922,
        "meta_mean_anomaly": 92.4517,
        "meta_ephemeris_type": 0,
        "meta_classification_type": "U",
        "meta_norad_cat_id": 37238,
        "meta_element_set_no": 999,
        "meta_rev_at_epoch": 5134,
        "meta_bstar": 0,
        "meta_mean_motion_dot": 1e-08,
        "meta_mean_motion_ddot": 0,
        "tle_line1": "1 37238U 10065B   25343.57862705  .00000001  00000+0  00000+0 0  9991",
        "tle_line2": "2 37238   0.0146 285.3416 0002447 335.0922  92.4517  1.00272555 51344"
      },
      "geometry": {
        "type": "Point",
        "coordinates": [
          94.13445779520539,
          0.014798727200356838
        ]
      }
    },
    {
      "type": "Feature",
      "properties": {
        "norad_id": 37392,
        "name": "INTELSAT 28 (IS-28)",
        "group": "intelsat",
        "lat": -1.31269750213586,
        "lon": -3.523425035204706,
        "alt_km": 35787.10596791606,
        "timestamp": "2025-12-09T20:37:08.949610+00:00",
        "meta_object_name": "INTELSAT 28 (IS-28)",
        "meta_object_id": "2011-016A",
        "meta_epoch": "2025-12-09T09:59:50.732160",
        "meta_mean_motion": 1.00272298,
        "meta_eccentricity": 0.00039831,
        "meta_inclination": 1.3162,
        "meta_ra_of_asc_node": 85.0937,
        "meta_arg_of_pericenter": 178.1199,
        "meta_mean_anomaly": 293.4552,
        "meta_ephemeris_type": 0,
        "meta_classification_type": "U",
        "meta_norad_cat_id": 37392,
        "meta_element_set_no": 999,
        "meta_rev_at_epoch": 5138,
        "meta_bstar": 0,
        "meta_mean_motion_dot": -2.23e-06,
        "meta_mean_motion_ddot": 0,
        "tle_line1": "1 37392U 11016A   25343.41655940 -.00000223  00000+0  00000+0 0  9990",
        "tle_line2": "2 37392   1.3162  85.0937 0003983 178.1199 293.4552  1.00272298 51388"
      },
      "geometry": {
        "type": "Point",
        "coordinates": [
          -3.523425035204706,
          -1.31269750213586
        ]
      }
    },
    {
      "type": "Feature",
      "properties": {
        "norad_id": 37834,
        "name": "INTELSAT 18 (IS-18)",
        "group": "intelsat",
        "lat": -0.026713262881142702,
        "lon": -151.89632137323898,
        "alt_km": 35781.46531265211,
        "timestamp": "2025-12-09T20:37:08.949621+00:00",
        "meta_object_name": "INTELSAT 18 (IS-18)",
        "meta_object_id": "2011-056A",
        "meta_epoch": "2025-12-09T12:50:38.699232",
        "meta_mean_motion": 1.00271465,
        "meta_eccentricity": 0.00020554,
        "meta_inclination": 0.0174,
        "meta_ra_of_asc_node": 342.9835,
        "meta_arg_of_pericenter": 282.5767,
        "meta_mean_anomaly": 185.6216,
        "meta_ephemeris_type": 0,
        "meta_classification_type": "U",
        "meta_norad_cat_id": 37834,
        "meta_element_set_no": 999,
        "meta_rev_at_epoch": 5191,
        "meta_bstar": 0,
        "meta_mean_motion_dot": 5.5e-07,
        "meta_mean_motion_ddot": 0,
        "tle_line1": "1 37834U 11056A   25343.53517013  .00000055  00000+0  00000+0 0  9998",
        "tle_line2": "2 37834   0.0174 342.9835 0002055 282.5767 185.6216  1.00271465 51913"
      },
      "geometry": {
        "type": "Point",
        "coordinates": [
          -151.89632137323898,
          -0.026713262881142702
        ]
      }
    },
    {
      "type": "Feature",
      "properties": {
        "norad_id": 38098,
        "name": "INTELSAT 22 (IS-22)",
        "group": "intelsat",
        "lat": 0.021089622818683262,
        "lon": 100.2465827656199,
        "alt_km": 35791.667472506924,
        "timestamp": "2025-12-09T20:37:08.949633+00:00",
        "meta_object_name": "INTELSAT 22 (IS-22)",
        "meta_object_id": "2012-011A",
        "meta_epoch": "2025-12-09T13:54:58.208832",
        "meta_mean_motion": 1.00274452,
        "meta_eccentricity": 0.00015524,
        "meta_inclination": 0.0157,
        "meta_ra_of_asc_node": 308.6129,
        "meta_arg_of_pericenter": 316.3489,
        "meta_mean_anomaly": 94.47,
        "meta_ephemeris_type": 0,
        "meta_classification_type": "U",
        "meta_norad_cat_id": 38098,
        "meta_element_set_no": 999,
        "meta_rev_at_epoch": 528,
        "meta_bstar": 0,
        "meta_mean_motion_dot": -5.7e-07,
        "meta_mean_motion_ddot": 0,
        "tle_line1": "1 38098U 12011A   25343.57984038 -.00000057  00000+0  00000+0 0  9995",
        "tle_line2": "2 38098   0.0157 308.6129 0001552 316.3489  94.4700  1.00274452  5283"
      },
      "geometry": {
        "type": "Point",
        "coordinates": [
          100.2465827656199,
          0.021089622818683262
        ]
      }
    },
    {
      "type": "Feature",
      "properties": {
        "norad_id": 38356,
        "name": "INTELSAT 19 (IS-19)",
        "group": "intelsat",
        "lat": -0.015039092905642894,
        "lon": -165.9062921231719,
        "alt_km": 35781.55601148426,
        "timestamp": "2025-12-09T20:37:08.949645+00:00",
        "meta_object_name": "INTELSAT 19 (IS-19)",
        "meta_object_id": "2012-030A",
        "meta_epoch": "2025-12-09T13:57:53.515296",
        "meta_mean_motion": 1.00271733,
        "meta_eccentricity": 0.00035319,
        "meta_inclination": 0.0089,
        "meta_ra_of_asc_node": 343.5427,
        "meta_arg_of_pericenter": 282.9405,
        "meta_mean_anomaly": 187.5649,
        "meta_ephemeris_type": 0,
        "meta_classification_type": "U",
        "meta_norad_cat_id": 38356,
        "meta_element_set_no": 999,
        "meta_rev_at_epoch": 4855,
        "meta_bstar": 0,
        "meta_mean_motion_dot": -5.4e-07,
        "meta_mean_motion_ddot": 0,
        "tle_line1": "1 38356U 12030A   25343.58186939 -.00000054  00000+0  00000+0 0  9995",
        "tle_line2": "2 38356   0.0089 343.5427 0003531 282.9405 187.5649  1.00271733 48550"
      },
      "geometry": {
        "type": "Point",
        "coordinates": [
          -165.9062921231719,
          -0.015039092905642894
        ]
      }
    },
    {
      "type": "Feature",
      "properties": {
        "norad_id": 38740,
        "name": "INTELSAT 20 (IS-20)",
        "group": "intelsat",
        "lat": 0.0027497334359472903,
        "lon": 96.60556479345779,
        "alt_km": 35786.99140676503,
        "timestamp": "2025-12-09T20:37:08.949657+00:00",
        "meta_object_name": "INTELSAT 20 (IS-20)",
        "meta_object_id": "2012-043A",
        "meta_epoch": "2025-12-09T13:53:50.816832",
        "meta_mean_motion": 1.00268403,
        "meta_eccentricity": 0.00025567,
        "meta_inclination": 0.0087,
        "meta_ra_of_asc_node": 90.6017,
        "meta_arg_of_pericenter": 95.7076,
        "meta_mean_anomaly": 169.2304,
        "meta_ephemeris_type": 0,
        "meta_classification_type": "U",
        "meta_norad_cat_id": 38740,
        "meta_element_set_no": 999,
        "meta_rev_at_epoch": 4884,
        "meta_bstar": 0,
        "meta_mean_motion_dot": -2.1e-07,
        "meta_mean_motion_ddot": 0,
        "tle_line1": "1 38740U 12043A   25343.57906038 -.00000021  00000+0  00000+0 0  9999",
        "tle_line2": "2 38740   0.0087  90.6017 0002556  95.7076 169.2304  1.00268403 48847"
      },
      "geometry": {
        "type": "Point",
        "coordinates": [
          96.60556479345779,
          0.0027497334359472903
        ]
      }
    },
    {
      "type": "Feature",
      "properties": {
        "norad_id": 38749,
        "name": "INTELSAT 21 (IS-21)",
        "group": "intelsat",
        "lat": -0.016214734883142966,
        "lon": -29.847771992044937,
        "alt_km": 35784.08373109436,
        "timestamp": "2025-12-09T20:37:08.949669+00:00",
        "meta_object_name": "INTELSAT 21 (IS-21)",
        "meta_object_id": "2012-045A",
        "meta_epoch": "2025-12-09T11:35:04.111008",
        "meta_mean_motion": 1.002704,
        "meta_eccentricity": 0.00021589,
        "meta_inclination": 0.0121,
        "meta_ra_of_asc_node": 36.6822,
        "meta_arg_of_pericenter": 218.8599,
        "meta_mean_anomaly": 298.7001,
        "meta_ephemeris_type": 0,
        "meta_classification_type": "U",
        "meta_norad_cat_id": 38749,
        "meta_element_set_no": 999,
        "meta_rev_at_epoch": 4862,
        "meta_bstar": 0,
        "meta_mean_motion_dot": -2.83e-06,
        "meta_mean_motion_ddot": 0,
        "tle_line1": "1 38749U 12045A   25343.48268647 -.00000283  00000+0  00000+0 0  9997",
        "tle_line2": "2 38749   0.0121  36.6822 0002158 218.8599 298.7001  1.00270400 48623"
      },
      "geometry": {
        "type": "Point",
        "coordinates": [
          -29.847771992044937,
          -0.016214734883142966
        ]
      }
    }
  ]
}